QIANFAN-9               
1 60387U 24140J   26007.82912645  .00000186  00000+0  26947-3 0  9992
2 60387  88.9783 296.6409 0017550 117.8579 242.4353 13.50988490 70851
QIANFAN-10              
1 60388U 24140K   26007.83329464  .00000178  00000+0  25727-3 0  9991
2 60388  88.9793 295.9902 0016418  96.9101 263.3918 13.50988900 70982
QIANFAN-11              
1 60389U 24140L   26007.87045893  .00000176  00000+0  25411-3 0  9995
2 60389  88.9719 296.5540 0015606 116.9208 243.3539 13.50984932 70646
QIANFAN-12              
1 60390U 24140M   26007.81686904  .00000178  00000+0  25714-3 0  9993
2 60390  88.9762 296.6144 0014223 124.0988 236.1515 13.50985871 70766
QIANFAN-13              
1 60391U 24140N   26007.86211947  .00000189  00000+0  27370-3 0  9992
2 60391  88.9774 296.7127 0013986 126.3446 233.8998 13.50986425 70799
QIANFAN-14              
1 60392U 24140P   26007.81267192  .00000184  00000+0  26605-3 0  9996
2 60392  88.9753 296.6099 0017639 127.7619 232.5133 13.50985882 70793
QIANFAN-15              
1 60393U 24140Q   26007.82096958  .00000182  00000+0  26342-3 0  9994
2 60393  88.9777 296.5717 0013796 113.7096 246.5504 13.50984515 70788
QIANFAN-16              
1 60394U 24140R   26007.80864759  .00000176  00000+0  25406-3 0  9998
2 60394  88.9780 296.6939 0015501 130.7593 229.4907 13.50989842 70692
